NORAD_CAT_ID,OBJECT_NAME,OBJECT_TYPE,EPOCH,MEAN_MOTION,ECCENTRICITY,INCLINATION,RA_OF_ASC_NODE,ARG_OF_PERICENTER,MEAN_ANOMALY,BSTAR,MEAN_MOTION_DOT,MEAN_MOTION_DDOT,TLE_LINE0,TLE_LINE1,TLE_LINE2,SEMIMAJOR_AXIS,PERIOD,APOGEE,PERIGEE,DECAYED
53255.0,STARLINK-4142,PAYLOAD,2023-02-20 19:00:09,15.0886948,0.000135,53.2151,150.1165,78.1712,281.9431,0.0012207,0.00019208,0.0,0 STARLINK-4142,1 53255U 22086P   23051.79177808  .00019208  00000-0  12207-2 0  9990,2 53255  53.2151 150.1165 0001350  78.1712 281.9431 15.08869480 32870,6917.79,95.436,540.589,538.721,0.0
53255.0,STARLINK-4142,PAYLOAD,2023-02-21 12:29:23,15.08860928,0.0001608,53.2154,146.8437,104.7646,255.3524,0.0014406,0.00022727,0.0,0 STARLINK-4142,1 53255U 22086P   23052.52041654  .00022727  00000-0  14406-2 0  9994,2 53255  53.2154 146.8437 0001608 104.7646 255.3524 15.08860928 32983,6917.816,95.436,540.794,538.569,0.0
53255.0,STARLINK-4142,PAYLOAD,2023-02-21 15:40:10,15.08878187,0.0001359,53.2153,146.2504,94.6051,265.5096,0.0017874,0.00028303,0.0,0 STARLINK-4142,1 53255U 22086P   23052.65289408  .00028303  00000-0  17874-2 0  9997,2 53255  53.2153 146.2504 0001359  94.6051 265.5096 15.08878187 33187,6917.764,95.435,540.569,538.689,0.0
53255.0,STARLINK-4142,PAYLOAD,2023-02-21 23:37:06,15.08850658,0.0002151,53.2164,144.7633,88.1334,271.9904,0.00054007,8.32e-05,0.0,0 STARLINK-4142,1 53255U 22086P   23052.98409958  .00008320  00000-0  54007-3 0  9994,2 53255  53.2164 144.7633 0002151  88.1334 271.9904 15.08850658 33056,6917.848,95.437,541.201,538.225,0.0
53255.0,STARLINK-4142,PAYLOAD,2023-02-22 10:44:47,15.08842883,0.0001702,53.2163,142.68,93.2783,266.8404,0.00045368,6.94e-05,0.0,0 STARLINK-4142,1 53255U 22086P   23053.44777666  .00006940  00000-0  45368-3 0  9996,2 53255  53.2163 142.6800 0001702  93.2783 266.8404 15.08842883 33121,6917.872,95.437,540.914,538.559,0.0
53255.0,STARLINK-4142,PAYLOAD,2023-02-22 12:20:11,15.08842386,0.000169,53.2165,142.384,89.2693,270.8492,0.00038979,5.921e-05,0.0,0 STARLINK-4142,1 53255U 22086P   23053.51401714  .00005921  00000-0  38979-3 0  9990,2 53255  53.2165 142.3840 0001690  89.2693 270.8492 15.08842386 33316,6917.873,95.437,540.907,538.569,0.0
53255.0,STARLINK-4142,PAYLOAD,2023-02-22 17:06:20,15.08851821,0.0001642,53.2163,141.491,92.3639,267.7541,0.0004727,7.245e-05,0.0,0 STARLINK-4142,1 53255U 22086P   23053.71273399  .00007245  00000-0  47270-3 0  9993,2 53255  53.2163 141.4910 0001642  92.3639 267.7541 15.08851821 33341,6917.844,95.437,540.845,538.573,0.0
53255.0,STARLINK-4142,PAYLOAD,2023-02-23 05:49:25,15.08834777,0.0001652,53.2158,139.1094,110.5683,249.5486,0.00013923,1.928e-05,0.0,0 STARLINK-4142,1 53255U 22086P   23054.24266188  .00001928  00000-0  13923-3 0  9990,2 53255  53.2158 139.1094 0001652 110.5683 249.5486 15.08834777 33241,6917.896,95.438,540.904,538.619,0.0
53255.0,STARLINK-4142,PAYLOAD,2023-02-23 12:10:58,15.08839597,0.0001439,53.2162,137.9247,99.5214,260.5941,0.00037301,5.653e-05,0.0,0 STARLINK-4142,1 53255U 22086P   23054.50762268  .00005653  00000-0  37301-3 0  9994,2 53255  53.2162 137.9247 0001439  99.5214 260.5941 15.08839597 33469,6917.882,95.438,540.742,538.751,0.0
53255.0,STARLINK-4142,PAYLOAD,2023-02-23 16:57:07,15.08846813,0.0001371,53.2159,137.0304,97.403,262.7118,0.00091461,0.00014301,0.0,0 STARLINK-4142,1 53255U 22086P   23054.70634192  .00014301  00000-0  91461-3 0  9997,2 53255  53.2159 137.0304 0001371  97.4030 262.7118 15.08846813 33490,6917.86,95.437,540.673,538.776,0.0
53255.0,STARLINK-4142,PAYLOAD,2023-02-24 12:01:45,15.08846788,0.0001574,53.2155,133.4639,88.6903,271.427,0.00090022,0.00014071,0.0,0 STARLINK-4142,1 53255U 22086P   23055.50122509  .00014071  00000-0  90022-3 0  9996,2 53255  53.2155 133.4639 0001574  88.6903 271.4270 15.08846788 33614,6917.86,95.437,540.814,538.636,0.0
53255.0,STARLINK-4142,PAYLOAD,2023-02-24 21:34:04,15.08824015,0.0001211,53.2158,131.6799,108.1297,251.9827,-0.00050209,-8.266e-05,0.0,0 STARLINK-4142,1 53255U 22086P   23055.89866690 -.00008266  00000-0 -50209-3 0  9998,2 53255  53.2158 131.6799 0001211 108.1297 251.9827 15.08824015 33492,6917.929,95.439,540.632,538.956,0.0
53255.0,STARLINK-4142,PAYLOAD,2023-02-25 05:31:00,15.08825575,0.0001196,53.2154,130.1935,114.1338,245.9779,7.4165e-05,8.92e-06,0.0,0 STARLINK-4142,1 53255U 22086P   23056.22986966  .00000892  00000-0  74165-4 0  9998,2 53255  53.2154 130.1935 0001196 114.1338 245.9779 15.08825575 33726,6917.924,95.438,540.617,538.962,0.0
53255.0,STARLINK-4142,PAYLOAD,2023-02-25 16:38:43,15.08838184,0.0001325,53.2148,128.112,111.3679,248.7455,0.0015447,0.0002438,0.0,0 STARLINK-4142,1 53255U 22086P   23056.69355468  .00024380  00000-0  15447-2 0  9990,2 53255  53.2148 128.1120 0001325 111.3679 248.7455 15.08838184 33613,6917.886,95.438,540.668,538.834,0.0
53255.0,STARLINK-4142,PAYLOAD,2023-02-25 21:24:52,15.08845377,0.0001373,53.2146,127.2196,110.661,249.4529,0.0015227,0.00024032,0.0,0 STARLINK-4142,1 53255U 22086P   23056.89227513  .00024032  00000-0  15227-2 0  9991,2 53255  53.2146 127.2196 0001373 110.6610 249.4529 15.08845377 33829,6917.864,95.437,540.679,538.779,0.0
53255.0,STARLINK-4142,PAYLOAD,2023-02-26 13:18:42,15.08885757,0.0001362,53.2143,124.246,108.9886,251.1253,0.0019385,0.00030737,0.0,0 STARLINK-4142,1 53255U 22086P   23057.55466290  .00030737  00000-0  19385-2 0  9990,2 53255  53.2143 124.2460 0001362 108.9886 251.1253 15.08885757 33921,6917.741,95.435,540.548,538.663,0.0
53255.0,STARLINK-4142,PAYLOAD,2023-02-26 14:54:05,15.08890117,0.0001346,53.2145,123.9487,109.1485,250.9653,0.001948,0.00030893,0.0,0 STARLINK-4142,1 53255U 22086P   23057.62090064  .00030893  00000-0  19480-2 0  9999,2 53255  53.2145 123.9487 0001346 109.1485 250.9653 15.08890117 33936,6917.727,95.434,540.523,538.661,0.0
53255.0,STARLINK-4142,PAYLOAD,2023-02-27 16:20:15,15.08911814,0.0001343,53.2144,119.1897,76.9904,283.1238,0.0055692,0.00089651,0.0,0 STARLINK-4142,1 53255U 22086P   23058.68073820  .00089651  00000-0  55692-2 0  9998,2 53255  53.2144 119.1897 0001343  76.9904 283.1238 15.08911814 33914,6917.661,95.433,540.455,538.597,0.0
53255.0,STARLINK-4142,PAYLOAD,2023-02-27 21:06:25,15.08832148,0.0001193,53.214,118.2983,83.4513,276.6615,0.0025119,0.00039907,0.0,0 STARLINK-4142,1 53255U 22086P   23058.87946139  .00039907  00000-0  25119-2 0  9991,2 53255  53.2140 118.2983 0001193  83.4513 276.6615 15.08832148 34120,6917.904,95.438,540.595,538.944,0.0
53255.0,STARLINK-4142,PAYLOAD,2023-02-28 13:00:16,15.08883342,0.0001206,53.2143,115.3244,68.7752,291.3369,0.0024093,0.0003831,0.0,0 STARLINK-4142,1 53255U 22086P   23059.54185198  .00038310  00000-0  24093-2 0  9993,2 53255  53.2143 115.3244 0001206  68.7752 291.3369 15.08883342 34220,6917.748,95.435,540.447,538.779,0.0
53255.0,STARLINK-4142,PAYLOAD,2023-02-28 20:57:12,15.08832751,0.0001131,53.2162,113.8377,77.7202,282.3917,-0.00047885,-7.899e-05,0.0,0 STARLINK-4142,1 53255U 22086P   23059.87305766 -.00007899  00000-0 -47885-3 0  9999,2 53255  53.2162 113.8377 0001131  77.7202 282.3917 15.08832751 34270,6917.903,95.438,540.55,538.985,0.0
53255.0,STARLINK-4142,PAYLOAD,2023-03-01 03:18:46,15.08817119,0.0003236,53.2149,112.6487,84.2434,275.8927,0.00022218,3.247e-05,0.0,0 STARLINK-4142,1 53255U 22086P   23060.13803280  .00003247  00000-0  22218-3 0  9998,2 53255  53.2149 112.6487 0003236  84.2434 275.8927 15.08817119 34136,6917.95,95.439,542.054,537.577,0.0
53255.0,STARLINK-4142,PAYLOAD,2023-03-01 09:40:19,15.08786636,0.0001211,53.2156,111.458,98.0342,262.0787,0.001292,0.00020304,0.0,0 STARLINK-4142,1 53255U 22086P   23060.40300202  .00020304  00000-0  12920-2 0  9995,2 53255  53.2156 111.4580 0001211  98.0342 262.0787 15.08786636 34172,6918.044,95.441,540.746,539.071,0.0
53255.0,STARLINK-4142,PAYLOAD,2023-03-01 20:48:02,15.08813678,9.67e-05,53.2148,109.3768,101.8034,258.3067,0.0020967,0.00033214,0.0,0 STARLINK-4142,1 53255U 22086P   23060.86669420  .00033214  00000-0  20967-2 0  9999,2 53255  53.2148 109.3768 0000967 101.8034 258.3067 15.08813678 34429,6917.961,95.439,540.495,539.157,0.0
53255.0,STARLINK-4142,PAYLOAD,2023-03-02 03:09:35,15.08832439,9.79e-05,53.2147,108.1877,97.7203,262.39,0.0020761,0.00032901,0.0,0 STARLINK-4142,1 53255U 22086P   23061.13165691  .00032901  00000-0  20761-2 0  9995,2 53255  53.2147 108.1877 0000979  97.7203 262.3900 15.08832439 34281,6917.904,95.438,540.446,539.091,0.0
53255.0,STARLINK-4142,PAYLOAD,2023-03-02 14:17:16,15.08864227,0.0001064,53.2151,106.1066,92.2291,267.8823,0.0021377,0.0003392,0.0,0 STARLINK-4142,1 53255U 22086P   23061.59533421  .00033920  00000-0  21377-2 0  9991,2 53255  53.2151 106.1066 0001064  92.2291 267.8823 15.08864227 34539,6917.806,95.436,540.407,538.935,0.0
53255.0,STARLINK-4142,PAYLOAD,2023-03-03 07:46:30,15.0889326,0.0001239,53.2156,102.8351,93.9871,266.1263,0.0021024,0.00033379,0.0,0 STARLINK-4142,1 53255U 22086P   23062.32396018  .00033379  00000-0  21024-2 0  9999,2 53255  53.2156 102.8351 0001239  93.9871 266.1263 15.08893260 34461,6917.718,95.434,540.44,538.725,0.0
53255.0,STARLINK-4142,PAYLOAD,2023-03-03 09:21:53,15.08897056,0.0001224,53.2156,102.5377,96.1024,264.0107,0.0021208,0.00033679,0.0,0 STARLINK-4142,1 53255U 22086P   23062.39019759  .00033679  00000-0  21208-2 0  9997,2 53255  53.2156 102.5377 0001224  96.1024 264.0107 15.08897056 34657,6917.706,95.434,540.418,538.724,0.0
53255.0,STARLINK-4142,PAYLOAD,2023-03-03 14:08:01,15.08909691,0.0001229,53.2155,101.6454,95.8828,264.2304,0.0021297,0.00033834,0.0,0 STARLINK-4142,1 53255U 22086P   23062.58890908  .00033834  00000-0  21297-2 0  9992,2 53255  53.2155 101.6454 0001229  95.8828 264.2304 15.08909691 34688,6917.667,95.433,540.383,538.682,0.0
53255.0,STARLINK-4142,PAYLOAD,2023-03-04 06:01:53,15.08858668,0.0001474,53.216,98.6707,105.4411,254.6744,0.0011538,0.00018132,0.0,0 STARLINK-4142,1 53255U 22086P   23063.25130979  .00018132  00000-0  11538-2 0  9993,2 53255  53.2160  98.6707 0001474 105.4411 254.6744 15.08858668 34608,6917.823,95.436,540.708,538.669,0.0
